{"type": "FeatureCollection", "features": [ {"type": "Feature", "properties": {"norad_id": 66610, "name": "STARLINK-35680", "group": "last-30-days", "lat": -22.69854671062763, "lon": 125.78895676201323, "alt_km": 437.07844543280044, "timestamp": "2025-12-19T14:48:34.964134+00:00", "meta": {"OBJECT_NAME": "STARLINK-35680", "OBJECT_ID": "2025-270Y", "EPOCH": "2025-12-19T08:00:01.999872", "MEAN_MOTION": 15.44855566, "ECCENTRICITY": 0.0001126, "INCLINATION": 42.9997, "RA_OF_ASC_NODE": 154.1044, "ARG_OF_PERICENTER": 276.0963, "MEAN_ANOMALY": 270.3937, "EPHEMERIS_TYPE": 0, "CLASSIFICATION_TYPE": "U", "NORAD_CAT_ID": 66610, "ELEMENT_SET_NO": 999, "REV_AT_EPOCH": 556, "BSTAR": -0.048140071, "MEAN_MOTION_DOT": -0.02055421, "MEAN_MOTION_DDOT": 0}, "tle": {"line1": "1 66610U 25270Y   25353.33335648 -.02055421  00000+0 -48140-1 0  9996", "line2": "2 66610  42.9997 154.1044 0001126 276.0963 270.3937 15.44855566  5569"}}, "geometry": {"type": "Point", "coordinates": [125.78895676201323, -22.69854671062763]}}, {"type": "Feature", "properties": {"norad_id": 66611, "name": "STARLINK-35583", "group": "last-30-days", "lat": -10.281157015192905, "lon": 141.18654355406113, "alt_km": 419.46401972877993, "timestamp": "2025-12-19T14:48:34.964145+00:00", "meta": {"OBJECT_NAME": "STARLINK-35583", "OBJECT_ID": "2025-270Z", "EPOCH": "2025-12-18T21:51:42.184224", "MEAN_MOTION": 15.50080389, "ECCENTRICITY": 0.00037731, "INCLINATION": 42.9989, "RA_OF_ASC_NODE": 156.5389, "ARG_OF_PERICENTER": 233.564, "MEAN_ANOMALY": 126.4872, "EPHEMERIS_TYPE": 0, "CLASSIFICATION_TYPE": "U", "NORAD_CAT_ID": 66611, "ELEMENT_SET_NO": 999, "REV_AT_EPOCH": 541, "BSTAR": -0.0050396687, "MEAN_MOTION_DOT": -0.00280742, "MEAN_MOTION_DDOT": 0}, "tle": {"line1": "1 66611U 25270Z   25352.91090491 -.00280742  00000+0 -50397-2 0  9996", "line2": "2 66611  42.9989 156.5389 0003773 233.5640 126.4872 15.50080389  5412"}}, "geometry": {"type": "Point", "coordinates": [141.18654355406113, -10.281157015192905]}}, {"type": "Feature", "properties": {"norad_id": 66612, "name": "STARLINK-36039", "group": "last-30-days", "lat": 41.18079116860428, "lon": -96.86737135877611, "alt_km": 438.2909134066367, "timestamp": "2025-12-19T14:48:34.964155+00:00", "meta": {"OBJECT_NAME": "STARLINK-36039", "OBJECT_ID": "2025-270AA", "EPOCH": "2025-12-19T03:27:54.763776", "MEAN_MOTION": 15.4070398, "ECCENTRICITY": 0.00013545, "INCLINATION": 42.9986, "RA_OF_ASC_NODE": 155.7191, "ARG_OF_PERICENTER": 285.3798, "MEAN_ANOMALY": 74.6908, "EPHEMERIS_TYPE": 0, "CLASSIFICATION_TYPE": "U", "NORAD_CAT_ID": 66612, "ELEMENT_SET_NO": 999, "REV_AT_EPOCH": 533, "BSTAR": 0.0009673653, "MEAN_MOTION_DOT": 0.00040325, "MEAN_MOTION_DDOT": 0}, "tle": {"line1": "1 66612U 25270AA  25353.14438384  .00040325  00000+0  96737-3 0  9998", "line2": "2 66612  42.9986 155.7191 0001354 285.3798  74.6908 15.40703980  5337"}}, "geometry": {"type": "Point", "coordinates": [-96.86737135877611, 41.18079116860428]}}, {"type": "Feature", "properties": {"norad_id": 66613, "name": "STARLINK-36037", "group": "last-30-days", "lat": 31.407540275601182, "lon": -68.00766798445426, "alt_km": 439.4454705170838, "timestamp": "2025-12-19T14:48:34.964165+00:00", "meta": {"OBJECT_NAME": "STARLINK-36037", "OBJECT_ID": "2025-270AB", "EPOCH": "2025-12-18T22:41:22.829568", "MEAN_MOTION": 15.40749865, "ECCENTRICITY": 0.00015375, "INCLINATION": 42.9988, "RA_OF_ASC_NODE": 156.8039, "ARG_OF_PERICENTER": 258.6695, "MEAN_ANOMALY": 101.3989, "EPHEMERIS_TYPE": 0, "CLASSIFICATION_TYPE": "U", "NORAD_CAT_ID": 66613, "ELEMENT_SET_NO": 999, "REV_AT_EPOCH": 530, "BSTAR": 0.00099238029, "MEAN_MOTION_DOT": 0.00041445, "MEAN_MOTION_DDOT": 0}, "tle": {"line1": "1 66613U 25270AB  25352.94540312  .00041445  00000+0  99238-3 0  9994", "line2": "2 66613  42.9988 156.8039 0001537 258.6695 101.3989 15.40749865  5301"}}, "geometry": {"type": "Point", "coordinates": [-68.00766798445426, 31.407540275601182]}}, {"type": "Feature", "properties": {"norad_id": 66614, "name": "STARLINK-36040", "group": "last-30-days", "lat": -36.93401318292765, "lon": 26.439621790338723, "alt_km": 445.9707892427041, "timestamp": "2025-12-19T14:48:34.964177+00:00", "meta": {"OBJECT_NAME": "STARLINK-36040", "OBJECT_ID": "2025-270AC", "EPOCH": "2025-12-19T08:00:01.999872", "MEAN_MOTION": 15.4066961, "ECCENTRICITY": 0.00021355, "INCLINATION": 42.9997, "RA_OF_ASC_NODE": 154.2969, "ARG_OF_PERICENTER": 275.2595, "MEAN_ANOMALY": 191.0423, "EPHEMERIS_TYPE": 0, "CLASSIFICATION_TYPE": "U", "NORAD_CAT_ID": 66614, "ELEMENT_SET_NO": 999, "REV_AT_EPOCH": 530, "BSTAR": 0.0011714635, "MEAN_MOTION_DOT": 0.00048897, "MEAN_MOTION_DDOT": 0}, "tle": {"line1": "1 66614U 25270AC  25353.33335648  .00048897  00000+0  11715-2 0  9994", "line2": "2 66614  42.9997 154.2969 0002135 275.2595 191.0423 15.40669610  5303"}}, "geometry": {"type": "Point", "coordinates": [26.439621790338723, -36.93401318292765]}}, {"type": "Feature", "properties": {"norad_id": 66615, "name": "STARLINK-35988", "group": "last-30-days", "lat": 8.672935177594162, "lon": -36.57710256124602, "alt_km": 442.8027696202289, "timestamp": "2025-12-19T14:48:34.964187+00:00", "meta": {"OBJECT_NAME": "STARLINK-35988", "OBJECT_ID": "2025-270AD", "EPOCH": "2025-12-19T00:00:02.000160", "MEAN_MOTION": 15.4065151, "ECCENTRICITY": 0.00015838, "INCLINATION": 42.9988, "RA_OF_ASC_NODE": 156.4013, "ARG_OF_PERICENTER": 268.5463, "MEAN_ANOMALY": 72.0896, "EPHEMERIS_TYPE": 0, "CLASSIFICATION_TYPE": "U", "NORAD_CAT_ID": 66615, "ELEMENT_SET_NO": 999, "REV_AT_EPOCH": 524, "BSTAR": 0.0015815317, "MEAN_MOTION_DOT": 0.0006623, "MEAN_MOTION_DDOT": 0}, "tle": {"line1": "1 66615U 25270AD  25353.00002315  .00066230  00000+0  15815-2 0  9997", "line2": "2 66615  42.9988 156.4013 0001583 268.5463  72.0896 15.40651510  5248"}}, "geometry": {"type": "Point", "coordinates": [-36.57710256124602, 8.672935177594162]}}, {"type": "Feature", "properties": {"norad_id": 66616, "name": "STARLINK-35391", "group": "last-30-days", "lat": -42.88958709590488, "lon": 58.06002314599014, "alt_km": 446.29477639372817, "timestamp": "2025-12-19T14:48:34.964197+00:00", "meta": {"OBJECT_NAME": "STARLINK-35391", "OBJECT_ID": "2025-270AE", "EPOCH": "2025-12-19T08:00:01.999872", "MEAN_MOTION": 15.40667718, "ECCENTRICITY": 0.00017034, "INCLINATION": 42.9997, "RA_OF_ASC_NODE": 154.2365, "ARG_OF_PERICENTER": 275.2609, "MEAN_ANOMALY": 215.9314, "EPHEMERIS_TYPE": 0, "CLASSIFICATION_TYPE": "U", "NORAD_CAT_ID": 66616, "ELEMENT_SET_NO": 999, "REV_AT_EPOCH": 556, "BSTAR": 0.0010917063, "MEAN_MOTION_DOT": 0.00045524, "MEAN_MOTION_DDOT": 0}, "tle": {"line1": "1 66616U 25270AE  25353.33335648  .00045524  00000+0  10917-2 0  9993", "line2": "2 66616  42.9997 154.2365 0001703 275.2609 215.9314 15.40667718  5561"}}, "geometry": {"type": "Point", "coordinates": [58.06002314599014, -42.88958709590488]}}, {"type": "Feature", "properties": {"norad_id": 66617, "name": "STARLINK-35940", "group": "last-30-days", "lat": 27.72238678964306, "lon": -48.526463085290864, "alt_km": 443.1439185838053, "timestamp": "2025-12-19T14:48:34.964209+00:00", "meta": {"OBJECT_NAME": "STARLINK-35940", "OBJECT_ID": "2025-271A", "EPOCH": "2025-12-19T00:00:02.000160", "MEAN_MOTION": 15.39596888, "ECCENTRICITY": 0.00013918, "INCLINATION": 53.1586, "RA_OF_ASC_NODE": 157.5858, "ARG_OF_PERICENTER": 105.8265, "MEAN_ANOMALY": 216.5412, "EPHEMERIS_TYPE": 0, "CLASSIFICATION_TYPE": "U", "NORAD_CAT_ID": 66617, "ELEMENT_SET_NO": 999, "REV_AT_EPOCH": 524, "BSTAR": 0.00083644886, "MEAN_MOTION_DOT": 0.00033178, "MEAN_MOTION_DDOT": 0}, "tle": {"line1": "1 66617U 25271A   25353.00002315  .00033178  00000+0  83645-3 0  9992", "line2": "2 66617  53.1586 157.5858 0001391 105.8265 216.5412 15.39596888  5240"}}, "geometry": {"type": "Point", "coordinates": [-48.526463085290864, 27.72238678964306]}}, {"type": "Feature", "properties": {"norad_id": 66618, "name": "STARLINK-35970", "group": "last-30-days", "lat": 1.6730141786092652, "lon": 155.4912157044471, "alt_km": 419.0773780795371, "timestamp": "2025-12-19T14:48:34.964220+00:00", "meta": {"OBJECT_NAME": "STARLINK-35970", "OBJECT_ID": "2025-271B", "EPOCH": "2025-12-18T21:46:16.468320", "MEAN_MOTION": 15.49335101, "ECCENTRICITY": 7.172e-05, "INCLINATION": 53.159, "RA_OF_ASC_NODE": 157.6323, "ARG_OF_PERICENTER": 82.1987, "MEAN_ANOMALY": 277.9103, "EPHEMERIS_TYPE": 0, "CLASSIFICATION_TYPE": "U", "NORAD_CAT_ID": 66618, "ELEMENT_SET_NO": 999, "REV_AT_EPOCH": 516, "BSTAR": 0.00091874022, "MEAN_MOTION_DOT": 0.0005103, "MEAN_MOTION_DDOT": 0}, "tle": {"line1": "1 66618U 25271B   25352.90713505  .00051030  00000+0  91874-3 0  9991", "line2": "2 66618  53.1590 157.6323 0000717  82.1987 277.9103 15.49335101  5162"}}, "geometry": {"type": "Point", "coordinates": [155.4912157044471, 1.6730141786092652]}}, {"type": "Feature", "properties": {"norad_id": 66619, "name": "STARLINK-35951", "group": "last-30-days", "lat": -33.50387029649389, "lon": 124.57665210950037, "alt_km": 423.1335781063617, "timestamp": "2025-12-19T14:48:34.964230+00:00", "meta": {"OBJECT_NAME": "STARLINK-35951", "OBJECT_ID": "2025-271C", "EPOCH": "2025-12-19T04:09:37.126368", "MEAN_MOTION": 15.49333473, "ECCENTRICITY": 9.562e-05, "INCLINATION": 53.1599, "RA_OF_ASC_NODE": 156.4548, "ARG_OF_PERICENTER": 94.0612, "MEAN_ANOMALY": 266.0506, "EPHEMERIS_TYPE": 0, "CLASSIFICATION_TYPE": "U", "NORAD_CAT_ID": 66619, "ELEMENT_SET_NO": 999, "REV_AT_EPOCH": 520, "BSTAR": 0.00056183795, "MEAN_MOTION_DOT": 0.00030949, "MEAN_MOTION_DDOT": 0}, "tle": {"line1": "1 66619U 25271C   25353.17334637  .00030949  00000+0  56184-3 0  9998", "line2": "2 66619  53.1599 156.4548 0000956  94.0612 266.0506 15.49333473  5201"}}, "geometry": {"type": "Point", "coordinates": [124.57665210950037, -33.50387029649389]}}]}